CCSDS_OMM_VERS = 2.0
CREATION_DATE  = 
ORIGINATOR     = 

OBJECT_NAME    = RSP-03
OBJECT_ID      = 1998-067XL
CENTER_NAME    = EARTH
REF_FRAME      = TEME
TIME_SYSTEM    = UTC
MEAN_ELEMENT_THEORY = SGP/SGP4

EPOCH          = 2026-02-05T11:26:58.868736
MEAN_MOTION    = 15.97597157
ECCENTRICITY   = .0006195
INCLINATION    = 51.6176
RA_OF_ASC_NODE = 213.1885
ARG_OF_PERICENTER = 272.2465
MEAN_ANOMALY   = 87.7835

EPHEMERIS_TYPE = 0
CLASSIFICATION_TYPE = U
NORAD_CAT_ID   = 65732
ELEMENT_SET_NO = 999
REV_AT_EPOCH   = 2181
BSTAR          = .17029E-2
MEAN_MOTION_DOT = .779256E-2
MEAN_MOTION_DDOT = .28136E-3

CCSDS_OMM_VERS = 2.0
CREATION_DATE  = 
ORIGINATOR     = 

OBJECT_NAME    = YOTSUBA-KULOVER
OBJECT_ID      = 1998-067XN
CENTER_NAME    = EARTH
REF_FRAME      = TEME
TIME_SYSTEM    = UTC
MEAN_ELEMENT_THEORY = SGP/SGP4

EPOCH          = 2026-02-04T16:53:31.825248
MEAN_MOTION    = 15.69794881
ECCENTRICITY   = .00041194
INCLINATION    = 51.6242
RA_OF_ASC_NODE = 226.8855
ARG_OF_PERICENTER = 225.2243
MEAN_ANOMALY   = 134.8419

EPHEMERIS_TYPE = 0
CLASSIFICATION_TYPE = U
NORAD_CAT_ID   = 65941
ELEMENT_SET_NO = 999
REV_AT_EPOCH   = 1830
BSTAR          = .91521542E-3
MEAN_MOTION_DOT = .112412E-2
MEAN_MOTION_DDOT = 0

CCSDS_OMM_VERS = 2.0
CREATION_DATE  = 
ORIGINATOR     = 

OBJECT_NAME    = BOTAN
OBJECT_ID      = 1998-067XP
CENTER_NAME    = EARTH
REF_FRAME      = TEME
TIME_SYSTEM    = UTC
MEAN_ELEMENT_THEORY = SGP/SGP4

EPOCH          = 2026-02-04T17:41:55.775904
MEAN_MOTION    = 15.81813889
ECCENTRICITY   = .00055731
INCLINATION    = 51.6187
RA_OF_ASC_NODE = 223.3215
ARG_OF_PERICENTER = 248.4699
MEAN_ANOMALY   = 111.5709

EPHEMERIS_TYPE = 0
CLASSIFICATION_TYPE = U
NORAD_CAT_ID   = 65942
ELEMENT_SET_NO = 999
REV_AT_EPOCH   = 1835
BSTAR          = .13963508E-2
MEAN_MOTION_DOT = .298019E-2
MEAN_MOTION_DDOT = 0

CCSDS_OMM_VERS = 2.0
CREATION_DATE  = 
ORIGINATOR     = 

OBJECT_NAME    = E-KAGAKU-1
OBJECT_ID      = 1998-067XQ
CENTER_NAME    = EARTH
REF_FRAME      = TEME
TIME_SYSTEM    = UTC
MEAN_ELEMENT_THEORY = SGP/SGP4

EPOCH          = 2026-02-04T16:54:19.729728
MEAN_MOTION    = 15.69709914
ECCENTRICITY   = .00032716
INCLINATION    = 51.6262
RA_OF_ASC_NODE = 226.8993
ARG_OF_PERICENTER = 239.9819
MEAN_ANOMALY   = 120.0854

EPHEMERIS_TYPE = 0
CLASSIFICATION_TYPE = U
NORAD_CAT_ID   = 65943
ELEMENT_SET_NO = 999
REV_AT_EPOCH   = 1830
BSTAR          = .93084002E-3
MEAN_MOTION_DOT = .113942E-2
MEAN_MOTION_DDOT = 0

CCSDS_OMM_VERS = 2.0
CREATION_DATE  = 
ORIGINATOR     = 

OBJECT_NAME    = HRC MONOBLOCK CAMERA
OBJECT_ID      = 1998-067XR
CENTER_NAME    = EARTH
REF_FRAME      = TEME
TIME_SYSTEM    = UTC
MEAN_ELEMENT_THEORY = SGP/SGP4

EPOCH          = 2026-02-04T17:14:48.548544
MEAN_MOTION    = 15.58789985
ECCENTRICITY   = .00005351
INCLINATION    = 51.6282
RA_OF_ASC_NODE = 231.4945
ARG_OF_PERICENTER = 1.9112
MEAN_ANOMALY   = 358.1883

EPHEMERIS_TYPE = 0
CLASSIFICATION_TYPE = U
NORAD_CAT_ID   = 66052
ELEMENT_SET_NO = 999
REV_AT_EPOCH   = 1724
BSTAR          = .57495497E-3
MEAN_MOTION_DOT = .45006E-3
MEAN_MOTION_DDOT = 0

CCSDS_OMM_VERS = 2.0
CREATION_DATE  = 
ORIGINATOR     = 

OBJECT_NAME    = HTV-X1
OBJECT_ID      = 2025-241A
CENTER_NAME    = EARTH
REF_FRAME      = TEME
TIME_SYSTEM    = UTC
MEAN_ELEMENT_THEORY = SGP/SGP4

EPOCH          = 2026-02-05T01:12:31.364064
MEAN_MOTION    = 15.48402345
ECCENTRICITY   = .00111254
INCLINATION    = 51.6315
RA_OF_ASC_NODE = 233.7051
ARG_OF_PERICENTER = 65.7526
MEAN_ANOMALY   = 294.4623

EPHEMERIS_TYPE = 0
CLASSIFICATION_TYPE = U
NORAD_CAT_ID   = 66174
ELEMENT_SET_NO = 999
REV_AT_EPOCH   = 51
BSTAR          = .21868475E-3
MEAN_MOTION_DOT = .11388E-3
MEAN_MOTION_DDOT = 0

CCSDS_OMM_VERS = 2.0
CREATION_DATE  = 
ORIGINATOR     = 

OBJECT_NAME    = SZ-21 MODULE
OBJECT_ID      = 2025-246C
CENTER_NAME    = EARTH
REF_FRAME      = TEME
TIME_SYSTEM    = UTC
MEAN_ELEMENT_THEORY = SGP/SGP4

EPOCH          = 2026-02-05T09:13:51.576672
MEAN_MOTION    = 15.66107693
ECCENTRICITY   = .0003081
INCLINATION    = 41.4761
RA_OF_ASC_NODE = 41.8476
ARG_OF_PERICENTER = 276.8900
MEAN_ANOMALY   = 83.1590

EPHEMERIS_TYPE = 0
CLASSIFICATION_TYPE = U
NORAD_CAT_ID   = 66515
ELEMENT_SET_NO = 999
REV_AT_EPOCH   = 1300
BSTAR          = .42095E-3
MEAN_MOTION_DOT = .44396E-3
MEAN_MOTION_DDOT = 0

CCSDS_OMM_VERS = 2.0
CREATION_DATE  = 
ORIGINATOR     = 

OBJECT_NAME    = SHENZHOU-22
OBJECT_ID      = 2025-272A
CENTER_NAME    = EARTH
REF_FRAME      = TEME
TIME_SYSTEM    = UTC
MEAN_ELEMENT_THEORY = SGP/SGP4

EPOCH          = 2026-02-05T04:37:07.288608
MEAN_MOTION    = 15.59205280
ECCENTRICITY   = .00057074
INCLINATION    = 41.4676
RA_OF_ASC_NODE = 45.6780
ARG_OF_PERICENTER = 3.1658
MEAN_ANOMALY   = 356.9216

EPHEMERIS_TYPE = 0
CLASSIFICATION_TYPE = U
NORAD_CAT_ID   = 66645
ELEMENT_SET_NO = 999
REV_AT_EPOCH   = 26764
BSTAR          = .23497078E-3
MEAN_MOTION_DOT = .18681E-3
MEAN_MOTION_DDOT = 0

CCSDS_OMM_VERS = 2.0
CREATION_DATE  = 
ORIGINATOR     = 

OBJECT_NAME    = SOYUZ-MS 28
OBJECT_ID      = 2025-275A
CENTER_NAME    = EARTH
REF_FRAME      = TEME
TIME_SYSTEM    = UTC
MEAN_ELEMENT_THEORY = SGP/SGP4

EPOCH          = 2026-02-05T05:51:20.162304
MEAN_MOTION    = 15.48407263
ECCENTRICITY   = .0011153
INCLINATION    = 51.6316
RA_OF_ASC_NODE = 232.7490
ARG_OF_PERICENTER = 66.4623
MEAN_ANOMALY   = 293.7536

EPHEMERIS_TYPE = 0
CLASSIFICATION_TYPE = U
NORAD_CAT_ID   = 66664
ELEMENT_SET_NO = 999
REV_AT_EPOCH   = 55130
BSTAR          = .23569E-3
MEAN_MOTION_DOT = .12313E-3
MEAN_MOTION_DDOT = 0

CCSDS_OMM_VERS = 2.0
CREATION_DATE  = 
ORIGINATOR     = 

OBJECT_NAME    = DUPLEX
OBJECT_ID      = 1998-067XS
CENTER_NAME    = EARTH
REF_FRAME      = TEME
TIME_SYSTEM    = UTC
MEAN_ELEMENT_THEORY = SGP/SGP4

EPOCH          = 2026-02-05T12:27:20.443968
MEAN_MOTION    = 15.53946250
ECCENTRICITY   = .0001445
INCLINATION    = 51.6289
RA_OF_ASC_NODE = 230.0872
ARG_OF_PERICENTER = 84.9208
MEAN_ANOMALY   = 275.1948

EPHEMERIS_TYPE = 0
CLASSIFICATION_TYPE = U
NORAD_CAT_ID   = 66906
ELEMENT_SET_NO = 999
REV_AT_EPOCH   = 1012
BSTAR          = .6629E-3
MEAN_MOTION_DOT = .43351E-3
MEAN_MOTION_DDOT = 0

CCSDS_OMM_VERS = 2.0
CREATION_DATE  = 
ORIGINATOR     = 

OBJECT_NAME    = 1998-067XT
OBJECT_ID      = 1998-067XT
CENTER_NAME    = EARTH
REF_FRAME      = TEME
TIME_SYSTEM    = UTC
MEAN_ELEMENT_THEORY = SGP/SGP4

EPOCH          = 2026-02-05T12:31:12.211968
MEAN_MOTION    = 15.60907337
ECCENTRICITY   = .0002199
INCLINATION    = 51.6261
RA_OF_ASC_NODE = 228.6046
ARG_OF_PERICENTER = 196.6188
MEAN_ANOMALY   = 163.4734

EPHEMERIS_TYPE = 0
CLASSIFICATION_TYPE = U
NORAD_CAT_ID   = 66907
ELEMENT_SET_NO = 999
REV_AT_EPOCH   = 1014
BSTAR          = .15875E-2
MEAN_MOTION_DOT = .137299E-2
MEAN_MOTION_DDOT = 0

CCSDS_OMM_VERS = 2.0
CREATION_DATE  = 
ORIGINATOR     = 

OBJECT_NAME    = 1998-067XU
OBJECT_ID      = 1998-067XU
CENTER_NAME    = EARTH
REF_FRAME      = TEME
TIME_SYSTEM    = UTC
MEAN_ELEMENT_THEORY = SGP/SGP4

EPOCH          = 2026-02-05T12:30:27.911232
MEAN_MOTION    = 15.60941820
ECCENTRICITY   = .0002022
INCLINATION    = 51.6263
RA_OF_ASC_NODE = 228.5990
ARG_OF_PERICENTER = 196.4745
MEAN_ANOMALY   = 163.6183

EPHEMERIS_TYPE = 0
CLASSIFICATION_TYPE = U
NORAD_CAT_ID   = 66908
ELEMENT_SET_NO = 999
REV_AT_EPOCH   = 1014
BSTAR          = .15635E-2
MEAN_MOTION_DOT = .135365E-2
MEAN_MOTION_DDOT = 0

